[{"OBJECT_NAME":"STARLINK-5755","OBJECT_ID":"2023-020AH","EPOCH":"2026-03-08T05:04:17.677344","MEAN_MOTION":15.02545506,"ECCENTRICITY":0.00010617,"INCLINATION":43.0059,"RA_OF_ASC_NODE":359.9807,"ARG_OF_PERICENTER":282.3198,"MEAN_ANOMALY":77.7525,"EPHEMERIS_TYPE":0,"CLASSIFICATION_TYPE":"U","NORAD_CAT_ID":55600,"ELEMENT_SET_NO":999,"REV_AT_EPOCH":16884,"BSTAR":0.00011301118,"MEAN_MOTION_DOT":1.324e-5,"MEAN_MOTION_DDOT":0},{"OBJECT_NAME":"ELECTRON KICK STAGE R\/B","OBJECT_ID":"2024-219F","EPOCH":"2026-03-09T23:20:11.125536","MEAN_MOTION":14.96109186,"ECCENTRICITY":0.00508226,"INCLINATION":97.9798,"RA_OF_ASC_NODE":244.6751,"ARG_OF_PERICENTER":283.2555,"MEAN_ANOMALY":76.3,"EPHEMERIS_TYPE":0,"CLASSIFICATION_TYPE":"U","NORAD_CAT_ID":62086,"ELEMENT_SET_NO":999,"REV_AT_EPOCH":7010,"BSTAR":0.00053960044,"MEAN_MOTION_DOT":6.166e-5,"MEAN_MOTION_DDOT":0}]
